{
  "type": "FeatureCollection",
  "features": [
    {
      "type": "Feature",
      "properties": {
        "norad_id": 35789,
        "name": "COSMOS 2251 DEB",
        "group": "cosmos-2251-debris",
        "lat": 45.98430557877815,
        "lon": -58.1626913160776,
        "alt_km": 736.638518972517,
        "timestamp": "2025-12-12T14:39:18.329061+00:00",
        "meta_object_name": "COSMOS 2251 DEB",
        "meta_object_id": "1993-036ASK",
        "meta_epoch": "2025-12-10T13:56:40.706016",
        "meta_mean_motion": 14.35983063,
        "meta_eccentricity": 0.0047241,
        "meta_inclination": 74.0389,
        "meta_ra_of_asc_node": 288.3315,
        "meta_arg_of_pericenter": 28.3225,
        "meta_mean_anomaly": 332.048,
        "meta_ephemeris_type": 0,
        "meta_classification_type": "U",
        "meta_norad_cat_id": 35789,
        "meta_element_set_no": 999,
        "meta_rev_at_epoch": 61196,
        "meta_bstar": 0.00023036,
        "meta_mean_motion_dot": 6.52e-06,
        "meta_mean_motion_ddot": 0,
        "tle_line1": "1 35789U 93036ASK 25344.58102669  .00000652  00000+0  23036-3 0  9997",
        "tle_line2": "2 35789  74.0389 288.3315 0047241  28.3225 332.0480 14.35983063611960"
      },
      "geometry": {
        "type": "Point",
        "coordinates": [
          -58.1626913160776,
          45.98430557877815
        ]
      }
    },
    {
      "type": "Feature",
      "properties": {
        "norad_id": 35793,
        "name": "COSMOS 2251 DEB",
        "group": "cosmos-2251-debris",
        "lat": 71.731307644772,
        "lon": 120.53488648931835,
        "alt_km": 624.8133716918346,
        "timestamp": "2025-12-12T14:39:18.329070+00:00",
        "meta_object_name": "COSMOS 2251 DEB",
        "meta_object_id": "1993-036ASP",
        "meta_epoch": "2025-12-11T14:14:11.171904",
        "meta_mean_motion": 14.78636291,
        "meta_eccentricity": 0.00026835,
        "meta_inclination": 74.0409,
        "meta_ra_of_asc_node": 62.436,
        "meta_arg_of_pericenter": 124.0966,
        "meta_mean_anomaly": 303.196,
        "meta_ephemeris_type": 0,
        "meta_classification_type": "U",
        "meta_norad_cat_id": 35793,
        "meta_element_set_no": 999,
        "meta_rev_at_epoch": 65780,
        "meta_bstar": 0.0026518543,
        "meta_mean_motion_dot": 0.00019452,
        "meta_mean_motion_ddot": 0,
        "tle_line1": "1 35793U 93036ASP 25345.59318486  .00019452  00000+0  26519-2 0  9996",
        "tle_line2": "2 35793  74.0409  62.4360 0002683 124.0966 303.1960 14.78636291657806"
      },
      "geometry": {
        "type": "Point",
        "coordinates": [
          120.53488648931835,
          71.731307644772
        ]
      }
    },
    {
      "type": "Feature",
      "properties": {
        "norad_id": 35824,
        "name": "COSMOS 2251 DEB",
        "group": "cosmos-2251-debris",
        "lat": 34.64422020453852,
        "lon": -142.5380008997158,
        "alt_km": 750.9688450869226,
        "timestamp": "2025-12-12T14:39:18.329079+00:00",
        "meta_object_name": "COSMOS 2251 DEB",
        "meta_object_id": "1993-036ASW",
        "meta_epoch": "2025-12-08T11:24:31.157568",
        "meta_mean_motion": 13.883958,
        "meta_eccentricity": 0.02494458,
        "meta_inclination": 73.8458,
        "meta_ra_of_asc_node": 56.1203,
        "meta_arg_of_pericenter": 143.0234,
        "meta_mean_anomaly": 218.8382,
        "meta_ephemeris_type": 0,
        "meta_classification_type": "U",
        "meta_norad_cat_id": 35824,
        "meta_element_set_no": 999,
        "meta_rev_at_epoch": 84168,
        "meta_bstar": 0.0020429183,
        "meta_mean_motion_dot": 3.116e-05,
        "meta_mean_motion_ddot": 0,
        "tle_line1": "1 35824U 93036ASW 25342.47536062  .00003116  00000+0  20429-2 0  9991",
        "tle_line2": "2 35824  73.8458  56.1203 0249445 143.0234 218.8382 13.88395800841685"
      },
      "geometry": {
        "type": "Point",
        "coordinates": [
          -142.5380008997158,
          34.64422020453852
        ]
      }
    },
    {
      "type": "Feature",
      "properties": {
        "norad_id": 35825,
        "name": "COSMOS 2251 DEB",
        "group": "cosmos-2251-debris",
        "lat": 17.148990454434195,
        "lon": -42.189183279378476,
        "alt_km": 927.1964502769406,
        "timestamp": "2025-12-12T14:39:18.329088+00:00",
        "meta_object_name": "COSMOS 2251 DEB",
        "meta_object_id": "1993-036ASX",
        "meta_epoch": "2025-12-06T17:43:31.257408",
        "meta_mean_motion": 13.70908059,
        "meta_eccentricity": 0.03529553,
        "meta_inclination": 74.1125,
        "meta_ra_of_asc_node": 152.5025,
        "meta_arg_of_pericenter": 249.6557,
        "meta_mean_anomaly": 106.6316,
        "meta_ephemeris_type": 0,
        "meta_classification_type": "U",
        "meta_norad_cat_id": 35825,
        "meta_element_set_no": 999,
        "meta_rev_at_epoch": 82426,
        "meta_bstar": 0.0026115912,
        "meta_mean_motion_dot": 3.599e-05,
        "meta_mean_motion_ddot": 0,
        "tle_line1": "1 35825U 93036ASX 25340.73855622  .00003599  00000+0  26116-2 0  9999",
        "tle_line2": "2 35825  74.1125 152.5025 0352955 249.6557 106.6316 13.70908059824269"
      },
      "geometry": {
        "type": "Point",
        "coordinates": [
          -42.189183279378476,
          17.148990454434195
        ]
      }
    },
    {
      "type": "Feature",
      "properties": {
        "norad_id": 35829,
        "name": "COSMOS 2251 DEB",
        "group": "cosmos-2251-debris",
        "lat": 0.4685456930584769,
        "lon": 99.19815249231418,
        "alt_km": 647.944774394653,
        "timestamp": "2025-12-12T14:39:18.329097+00:00",
        "meta_object_name": "COSMOS 2251 DEB",
        "meta_object_id": "1993-036ATB",
        "meta_epoch": "2025-12-08T14:41:25.732032",
        "meta_mean_motion": 14.76103447,
        "meta_eccentricity": 0.0006283,
        "meta_inclination": 74.0249,
        "meta_ra_of_asc_node": 106.8945,
        "meta_arg_of_pericenter": 174.4564,
        "meta_mean_anomaly": 185.6681,
        "meta_ephemeris_type": 0,
        "meta_classification_type": "U",
        "meta_norad_cat_id": 35829,
        "meta_element_set_no": 999,
        "meta_rev_at_epoch": 87714,
        "meta_bstar": 0.0032694,
        "meta_mean_motion_dot": 0.0002262,
        "meta_mean_motion_ddot": 0,
        "tle_line1": "1 35829U 93036ATB 25342.61210338  .00022620  00000+0  32694-2 0  9995",
        "tle_line2": "2 35829  74.0249 106.8945 0006283 174.4564 185.6681 14.76103447877147"
      },
      "geometry": {
        "type": "Point",
        "coordinates": [
          99.19815249231418,
          0.4685456930584769
        ]
      }
    },
    {
      "type": "Feature",
      "properties": {
        "norad_id": 35830,
        "name": "COSMOS 2251 DEB",
        "group": "cosmos-2251-debris",
        "lat": -29.847300829023343,
        "lon": -102.88925439558271,
        "alt_km": 822.4127406776988,
        "timestamp": "2025-12-12T14:39:18.329106+00:00",
        "meta_object_name": "COSMOS 2251 DEB",
        "meta_object_id": "1993-036ATC",
        "meta_epoch": "2025-12-06T12:06:38.215008",
        "meta_mean_motion": 14.23927917,
        "meta_eccentricity": 0.01224789,
        "meta_inclination": 73.8624,
        "meta_ra_of_asc_node": 277.7805,
        "meta_arg_of_pericenter": 247.2482,
        "meta_mean_anomaly": 111.5683,
        "meta_ephemeris_type": 0,
        "meta_classification_type": "U",
        "meta_norad_cat_id": 35830,
        "meta_element_set_no": 999,
        "meta_rev_at_epoch": 61175,
        "meta_bstar": 0.0019622096,
        "meta_mean_motion_dot": 4.837e-05,
        "meta_mean_motion_ddot": 0,
        "tle_line1": "1 35830U 93036ATC 25340.50460897  .00004837  00000+0  19622-2 0  9996",
        "tle_line2": "2 35830  73.8624 277.7805 0122478 247.2482 111.5683 14.23927917611750"
      },
      "geometry": {
        "type": "Point",
        "coordinates": [
          -102.88925439558271,
          -29.847300829023343
        ]
      }
    },
    {
      "type": "Feature",
      "properties": {
        "norad_id": 35834,
        "name": "COSMOS 2251 DEB",
        "group": "cosmos-2251-debris",
        "lat": 7.367104890404119,
        "lon": 122.63509062915338,
        "alt_km": 819.4068641982476,
        "timestamp": "2025-12-12T14:39:18.329115+00:00",
        "meta_object_name": "COSMOS 2251 DEB",
        "meta_object_id": "1993-036ATG",
        "meta_epoch": "2025-12-11T22:50:10.190976",
        "meta_mean_motion": 14.12978369,
        "meta_eccentricity": 0.0109244,
        "meta_inclination": 73.9316,
        "meta_ra_of_asc_node": 305.9432,
        "meta_arg_of_pericenter": 106.3479,
        "meta_mean_anomaly": 313.2595,
        "meta_ephemeris_type": 0,
        "meta_classification_type": "U",
        "meta_norad_cat_id": 35834,
        "meta_element_set_no": 999,
        "meta_rev_at_epoch": 66252,
        "meta_bstar": 0.00042126,
        "meta_mean_motion_dot": 8.06e-06,
        "meta_mean_motion_ddot": 0,
        "tle_line1": "1 35834U 93036ATG 25345.95150684  .00000806  00000+0  42126-3 0  9992",
        "tle_line2": "2 35834  73.9316 305.9432 0109244 106.3479 313.2595 14.12978369662529"
      },
      "geometry": {
        "type": "Point",
        "coordinates": [
          122.63509062915338,
          7.367104890404119
        ]
      }
    }
  ]
}